#   H-2 R/B                   # Deep space, perigee = 135.75 (<156) s4 mod
# 0 1440 120
1 28623U 05006B   06177.81079184  .00637644  69054-6  96390-3 0  6000
2 28623  28.5200 114.9834 6249053 170.2550 212.8965  3.79477162 12753
